{
    "week": 291,
    "satellites": [
        {
            "Name": "GSAT0226 (GALILEO 31)",
            "Line1": "1 61183U 24167B   24301.95071725 -.00000035  00000+0  00000+0 0  9992",
            "Line2": "2 61183  55.3944 237.7060 0033143  97.6119 262.7460  1.71381502   671",
            "SatelliteNumber": "61183",
            "Classification": "U",
            "LaunchYear": "24",
            "LaunchNumber": "167",
            "PieceOfLaunch": "B",
            "EpochYear": "24",
            "EpochDay": 301.95071725,
            "FirstDerivativeMeanMotion": -3.5e-07,
            "SecondDerivativeMeanMotion": "00000+0",
            "BSTAR": "00000+0",
            "SetNumber": "999",
            "Inclination": 55.3944,
            "RAAN": 237.706,
            "Eccentricity": 0.0033143,
            "ArgumentOfPerigee": 97.6119,
            "MeanAnomaly": 262.746,
            "MeanMotion": 1.71381502,
            "RevolutionNumber": "67"
        }
    ]
}